{
  "links" : {
    "next" : "https://api.nasa.gov/neo/rest/v1/feed?start_date=1998-09-16&end_date=1998-09-16&detailed=true&api_key=t0TVs3DtDT2H8Oy2Zy8m2eVrNsAVKAexjcZXUckd",
    "prev" : "https://api.nasa.gov/neo/rest/v1/feed?start_date=1998-09-14&end_date=1998-09-14&detailed=true&api_key=t0TVs3DtDT2H8Oy2Zy8m2eVrNsAVKAexjcZXUckd",
    "self" : "https://api.nasa.gov/neo/rest/v1/feed?start_date=1998-09-15&end_date=1998-09-15&detailed=true&api_key=t0TVs3DtDT2H8Oy2Zy8m2eVrNsAVKAexjcZXUckd"
  },
  "element_count" : 1,
  "near_earth_objects" : {
    "1998-09-15" : [ {
      "links" : {
        "self" : "https://api.nasa.gov/neo/rest/v1/neo/3515380?api_key=t0TVs3DtDT2H8Oy2Zy8m2eVrNsAVKAexjcZXUckd"
      },
      "neo_reference_id" : "3515380",
      "name" : "(2010 GL23)",
      "nasa_jpl_url" : "http://ssd.jpl.nasa.gov/sbdb.cgi?sstr=3515380",
      "absolute_magnitude_h" : 22.8,
      "estimated_diameter" : {
        "kilometers" : {
          "estimated_diameter_min" : 0.0732073989,
          "estimated_diameter_max" : 0.1636967205
        },
        "meters" : {
          "estimated_diameter_min" : 73.2073989347,
          "estimated_diameter_max" : 163.696720474
        },
        "miles" : {
          "estimated_diameter_min" : 0.0454889547,
          "estimated_diameter_max" : 0.1017163949
        },
        "feet" : {
          "estimated_diameter_min" : 240.181762721,
          "estimated_diameter_max" : 537.0627483999
        }
      },
      "is_potentially_hazardous_asteroid" : false,
      "close_approach_data" : [ {
        "close_approach_date" : "1998-09-15",
        "epoch_date_close_approach" : 905842800000,
        "relative_velocity" : {
          "kilometers_per_second" : "16.7590388586",
          "kilometers_per_hour" : "60332.5398911368",
          "miles_per_hour" : "37488.2940229122"
        },
        "miss_distance" : {
          "astronomical" : "0.2142796837",
          "lunar" : "83.3547973633",
          "kilometers" : "32055784",
          "miles" : "19918540"
        },
        "orbiting_body" : "Earth"
      } ],
      "orbital_data" : {
        "orbit_id" : "13",
        "orbit_determination_date" : "2017-04-06 08:57:53",
        "orbit_uncertainty" : "7",
        "minimum_orbit_intersection" : ".0640548",
        "jupiter_tisserand_invariant" : "5.376",
        "epoch_osculation" : "2458000.5",
        "eccentricity" : ".3656761137233083",
        "semi_major_axis" : "1.154870324082498",
        "inclination" : "7.199324173903412",
        "ascending_node_longitude" : "214.1548636077999",
        "orbital_period" : "453.3130893702988",
        "perihelion_distance" : ".7325618321176325",
        "perihelion_argument" : "237.7164809835669",
        "aphelion_distance" : "1.577178816047363",
        "perihelion_time" : "2457931.583458384983",
        "mean_anomaly" : "54.7302858954944",
        "mean_motion" : ".7941531106019444",
        "equinox" : "J2000"
      }
    } ]
  }
}